[{"OBJECT_NAME":"OBJECT B","OBJECT_ID":"2022-023B","EPOCH":"2026-03-09T22:47:53.401632","MEAN_MOTION":15.18262382,"ECCENTRICITY":0.00937159,"INCLINATION":63.476,"RA_OF_ASC_NODE":246.6999,"ARG_OF_PERICENTER":346.6129,"MEAN_ANOMALY":13.2499,"EPHEMERIS_TYPE":0,"CLASSIFICATION_TYPE":"U","NORAD_CAT_ID":51947,"ELEMENT_SET_NO":999,"REV_AT_EPOCH":22265,"BSTAR":0.00086643699,"MEAN_MOTION_DOT":0.00019848,"MEAN_MOTION_DDOT":0},{"OBJECT_NAME":"STARLINK-6215","OBJECT_ID":"2023-099AR","EPOCH":"2026-03-09T22:00:01.999584","MEAN_MOTION":15.14592459,"ECCENTRICITY":0.00010726,"INCLINATION":43.0008,"RA_OF_ASC_NODE":221.1612,"ARG_OF_PERICENTER":297.0481,"MEAN_ANOMALY":176.8497,"EPHEMERIS_TYPE":0,"CLASSIFICATION_TYPE":"U","NORAD_CAT_ID":57367,"ELEMENT_SET_NO":999,"REV_AT_EPOCH":572,"BSTAR":0.062021398,"MEAN_MOTION_DOT":0.01260474,"MEAN_MOTION_DDOT":0}]
